{
  "type": "FeatureCollection",
  "metadata": {
    "source": "https://open-meteo.com/en/docs/air-quality-api",
    "model": "ECMWF CAMS global atmospheric composition",
    "timestamp": "2026-09-30T22:56:30.188Z",
    "count": 28
  },
  "features": [
    {
      "type": "Feature",
      "geometry": {
        "type": "Point",
        "coordinates": [
          74.7973,
          34.0837
        ]
      },
      "properties": {
        "station_id": "srinagar",
        "name": "Srinagar",
        "district": "Srinagar",
        "online": true,
        "time": "2026-09-30T22:00:00Z",
        "aqi": 89,
        "pm25": 43,
        "pm10": 45.8,
        "co": 463,
        "co2": 505,
        "no2": 32.1,
        "o3": 22,
        "so2": 2.9,
        "dust": 5,
        "uv": 0,
        "temp": 12.3,
        "hum": 89,
        "aqi_unit": "USAQI",
        "pm25_unit": "μg/m³",
        "pm10_unit": "μg/m³",
        "co_unit": "μg/m³",
        "co2_unit": "ppm",
        "no2_unit": "μg/m³",
        "o3_unit": "μg/m³",
        "so2_unit": "μg/m³",
        "dust_unit": "μg/m³",
        "temp_unit": "°C",
        "hum_unit": "%"
      }
    },
    {
      "type": "Feature",
      "geometry": {
        "type": "Point",
        "coordinates": [
          75.1487,
          33.7311
        ]
      },
      "properties": {
        "station_id": "anantnag",
        "name": "Anantnag",
        "district": "Anantnag",
        "online": true,
        "time": "2026-09-30T22:00:00Z",
        "aqi": 80,
        "pm25": 39.6,
        "pm10": 41.7,
        "co": 433,
        "co2": 503,
        "no2": 37.3,
        "o3": 0,
        "so2": 2.7,
        "dust": 3,
        "uv": 0,
        "temp": 13.9,
        "hum": 73,
        "aqi_unit": "USAQI",
        "pm25_unit": "μg/m³",
        "pm10_unit": "μg/m³",
        "co_unit": "μg/m³",
        "co2_unit": "ppm",
        "no2_unit": "μg/m³",
        "o3_unit": "μg/m³",
        "so2_unit": "μg/m³",
        "dust_unit": "μg/m³",
        "temp_unit": "°C",
        "hum_unit": "%"
      }
    },
    {
      "type": "Feature",
      "geometry": {
        "type": "Point",
        "coordinates": [
          74.3636,
          34.198
        ]
      },
      "properties": {
        "station_id": "baramulla",
        "name": "Baramulla",
        "district": "Baramulla",
        "online": true,
        "time": "2026-09-30T22:00:00Z",
        "aqi": 64,
        "pm25": 16.7,
        "pm10": 19.7,
        "co": 211,
        "co2": 493,
        "no2": 10.3,
        "o3": 75,
        "so2": 2.8,
        "dust": 6,
        "uv": 0,
        "temp": 14.2,
        "hum": 59,
        "aqi_unit": "USAQI",
        "pm25_unit": "μg/m³",
        "pm10_unit": "μg/m³",
        "co_unit": "μg/m³",
        "co2_unit": "ppm",
        "no2_unit": "μg/m³",
        "o3_unit": "μg/m³",
        "so2_unit": "μg/m³",
        "dust_unit": "μg/m³",
        "temp_unit": "°C",
        "hum_unit": "%"
      }
    },
    {
      "type": "Feature",
      "geometry": {
        "type": "Point",
        "coordinates": [
          74.7857,
          33.9299
        ]
      },
      "properties": {
        "station_id": "budgam",
        "name": "Budgam",
        "district": "Budgam",
        "online": true,
        "time": "2026-09-30T22:00:00Z",
        "aqi": 89,
        "pm25": 43,
        "pm10": 45.8,
        "co": 270,
        "co2": 476,
        "no2": 32.1,
        "o3": 22,
        "so2": 2.9,
        "dust": 5,
        "uv": 0,
        "temp": 12.6,
        "hum": 69,
        "aqi_unit": "USAQI",
        "pm25_unit": "μg/m³",
        "pm10_unit": "μg/m³",
        "co_unit": "μg/m³",
        "co2_unit": "ppm",
        "no2_unit": "μg/m³",
        "o3_unit": "μg/m³",
        "so2_unit": "μg/m³",
        "dust_unit": "μg/m³",
        "temp_unit": "°C",
        "hum_unit": "%"
      }
    },
    {
      "type": "Feature",
      "geometry": {
        "type": "Point",
        "coordinates": [
          74.6431,
          34.4177
        ]
      },
      "properties": {
        "station_id": "bandipora",
        "name": "Bandipora",
        "district": "Bandipora",
        "online": true,
        "time": "2026-09-30T22:00:00Z",
        "aqi": 57,
        "pm25": 20.7,
        "pm10": 23.4,
        "co": 181,
        "co2": 485,
        "no2": 23.7,
        "o3": 41,
        "so2": 5.2,
        "dust": 4,
        "uv": 0,
        "temp": 11.5,
        "hum": 59,
        "aqi_unit": "USAQI",
        "pm25_unit": "μg/m³",
        "pm10_unit": "μg/m³",
        "co_unit": "μg/m³",
        "co2_unit": "ppm",
        "no2_unit": "μg/m³",
        "o3_unit": "μg/m³",
        "so2_unit": "μg/m³",
        "dust_unit": "μg/m³",
        "temp_unit": "°C",
        "hum_unit": "%"
      }
    },
    {
      "type": "Feature",
      "geometry": {
        "type": "Point",
        "coordinates": [
          74.7748,
          34.2265
        ]
      },
      "properties": {
        "station_id": "ganderbal",
        "name": "Ganderbal",
        "district": "Ganderbal",
        "online": true,
        "time": "2026-09-30T22:00:00Z",
        "aqi": 57,
        "pm25": 20.7,
        "pm10": 23.4,
        "co": 242,
        "co2": 485,
        "no2": 23.7,
        "o3": 41,
        "so2": 5.2,
        "dust": 4,
        "uv": 0,
        "temp": 13.5,
        "hum": 53,
        "aqi_unit": "USAQI",
        "pm25_unit": "μg/m³",
        "pm10_unit": "μg/m³",
        "co_unit": "μg/m³",
        "co2_unit": "ppm",
        "no2_unit": "μg/m³",
        "o3_unit": "μg/m³",
        "so2_unit": "μg/m³",
        "dust_unit": "μg/m³",
        "temp_unit": "°C",
        "hum_unit": "%"
      }
    },
    {
      "type": "Feature",
      "geometry": {
        "type": "Point",
        "coordinates": [
          75.0192,
          33.6444
        ]
      },
      "properties": {
        "station_id": "kulgam",
        "name": "Kulgam",
        "district": "Kulgam",
        "online": true,
        "time": "2026-09-30T22:00:00Z",
        "aqi": 80,
        "pm25": 39.6,
        "pm10": 41.7,
        "co": 225,
        "co2": 464,
        "no2": 37.3,
        "o3": 0,
        "so2": 2.7,
        "dust": 3,
        "uv": 0,
        "temp": 15.3,
        "hum": 56,
        "aqi_unit": "USAQI",
        "pm25_unit": "μg/m³",
        "pm10_unit": "μg/m³",
        "co_unit": "μg/m³",
        "co2_unit": "ppm",
        "no2_unit": "μg/m³",
        "o3_unit": "μg/m³",
        "so2_unit": "μg/m³",
        "dust_unit": "μg/m³",
        "temp_unit": "°C",
        "hum_unit": "%"
      }
    },
    {
      "type": "Feature",
      "geometry": {
        "type": "Point",
        "coordinates": [
          74.2546,
          34.5262
        ]
      },
      "properties": {
        "station_id": "kupwara",
        "name": "Kupwara",
        "district": "Kupwara",
        "online": true,
        "time": "2026-09-30T22:00:00Z",
        "aqi": 68,
        "pm25": 19.9,
        "pm10": 22.5,
        "co": 242,
        "co2": 527,
        "no2": 12.3,
        "o3": 74,
        "so2": 4,
        "dust": 5,
        "uv": 0,
        "temp": 10.1,
        "hum": 65,
        "aqi_unit": "USAQI",
        "pm25_unit": "μg/m³",
        "pm10_unit": "μg/m³",
        "co_unit": "μg/m³",
        "co2_unit": "ppm",
        "no2_unit": "μg/m³",
        "o3_unit": "μg/m³",
        "so2_unit": "μg/m³",
        "dust_unit": "μg/m³",
        "temp_unit": "°C",
        "hum_unit": "%"
      }
    },
    {
      "type": "Feature",
      "geometry": {
        "type": "Point",
        "coordinates": [
          74.8988,
          33.8716
        ]
      },
      "properties": {
        "station_id": "pulwama",
        "name": "Pulwama",
        "district": "Pulwama",
        "online": true,
        "time": "2026-09-30T22:00:00Z",
        "aqi": 89,
        "pm25": 43,
        "pm10": 45.8,
        "co": 404,
        "co2": 491,
        "no2": 32.1,
        "o3": 22,
        "so2": 2.9,
        "dust": 5,
        "uv": 0,
        "temp": 10.5,
        "hum": 74,
        "aqi_unit": "USAQI",
        "pm25_unit": "μg/m³",
        "pm10_unit": "μg/m³",
        "co_unit": "μg/m³",
        "co2_unit": "ppm",
        "no2_unit": "μg/m³",
        "o3_unit": "μg/m³",
        "so2_unit": "μg/m³",
        "dust_unit": "μg/m³",
        "temp_unit": "°C",
        "hum_unit": "%"
      }
    },
    {
      "type": "Feature",
      "geometry": {
        "type": "Point",
        "coordinates": [
          74.8333,
          33.7167
        ]
      },
      "properties": {
        "station_id": "shopian",
        "name": "Shopian",
        "district": "Shopian",
        "online": true,
        "time": "2026-09-30T22:00:00Z",
        "aqi": 68,
        "pm25": 24.2,
        "pm10": 25.8,
        "co": 194,
        "co2": 461,
        "no2": 14.6,
        "o3": 36,
        "so2": 0.7,
        "dust": 4,
        "uv": 0,
        "temp": 11.1,
        "hum": 59,
        "aqi_unit": "USAQI",
        "pm25_unit": "μg/m³",
        "pm10_unit": "μg/m³",
        "co_unit": "μg/m³",
        "co2_unit": "ppm",
        "no2_unit": "μg/m³",
        "o3_unit": "μg/m³",
        "so2_unit": "μg/m³",
        "dust_unit": "μg/m³",
        "temp_unit": "°C",
        "hum_unit": "%"
      }
    },
    {
      "type": "Feature",
      "geometry": {
        "type": "Point",
        "coordinates": [
          74.467,
          34.287
        ]
      },
      "properties": {
        "station_id": "sopore",
        "name": "Sopore",
        "district": "Baramulla",
        "online": true,
        "time": "2026-09-30T22:00:00Z",
        "aqi": 68,
        "pm25": 19.9,
        "pm10": 22.5,
        "co": 308,
        "co2": 508,
        "no2": 12.3,
        "o3": 74,
        "so2": 4,
        "dust": 5,
        "uv": 0,
        "temp": 13.9,
        "hum": 60,
        "aqi_unit": "USAQI",
        "pm25_unit": "μg/m³",
        "pm10_unit": "μg/m³",
        "co_unit": "μg/m³",
        "co2_unit": "ppm",
        "no2_unit": "μg/m³",
        "o3_unit": "μg/m³",
        "so2_unit": "μg/m³",
        "dust_unit": "μg/m³",
        "temp_unit": "°C",
        "hum_unit": "%"
      }
    },
    {
      "type": "Feature",
      "geometry": {
        "type": "Point",
        "coordinates": [
          74.28,
          34.4
        ]
      },
      "properties": {
        "station_id": "handwara",
        "name": "Handwara",
        "district": "Kupwara",
        "online": true,
        "time": "2026-09-30T22:00:00Z",
        "aqi": 68,
        "pm25": 19.9,
        "pm10": 22.5,
        "co": 225,
        "co2": 511,
        "no2": 12.3,
        "o3": 74,
        "so2": 4,
        "dust": 5,
        "uv": 0,
        "temp": 12.3,
        "hum": 65,
        "aqi_unit": "USAQI",
        "pm25_unit": "μg/m³",
        "pm10_unit": "μg/m³",
        "co_unit": "μg/m³",
        "co2_unit": "ppm",
        "no2_unit": "μg/m³",
        "o3_unit": "μg/m³",
        "so2_unit": "μg/m³",
        "dust_unit": "μg/m³",
        "temp_unit": "°C",
        "hum_unit": "%"
      }
    },
    {
      "type": "Feature",
      "geometry": {
        "type": "Point",
        "coordinates": [
          74.3805,
          34.0484
        ]
      },
      "properties": {
        "station_id": "gulmarg",
        "name": "Gulmarg",
        "district": "Baramulla",
        "online": true,
        "time": "2026-09-30T22:00:00Z",
        "aqi": 64,
        "pm25": 16.7,
        "pm10": 19.7,
        "co": 189,
        "co2": 452,
        "no2": 10.3,
        "o3": 75,
        "so2": 2.8,
        "dust": 6,
        "uv": 0,
        "temp": 6.5,
        "hum": 74,
        "aqi_unit": "USAQI",
        "pm25_unit": "μg/m³",
        "pm10_unit": "μg/m³",
        "co_unit": "μg/m³",
        "co2_unit": "ppm",
        "no2_unit": "μg/m³",
        "o3_unit": "μg/m³",
        "so2_unit": "μg/m³",
        "dust_unit": "μg/m³",
        "temp_unit": "°C",
        "hum_unit": "%"
      }
    },
    {
      "type": "Feature",
      "geometry": {
        "type": "Point",
        "coordinates": [
          75.3151,
          34.0159
        ]
      },
      "properties": {
        "station_id": "pahalgam",
        "name": "Pahalgam",
        "district": "Anantnag",
        "online": true,
        "time": "2026-09-30T22:00:00Z",
        "aqi": 63,
        "pm25": 21.7,
        "pm10": 23.2,
        "co": 239,
        "co2": 485,
        "no2": 16.8,
        "o3": 12,
        "so2": 1.3,
        "dust": 2,
        "uv": 0,
        "temp": 8.7,
        "hum": 59,
        "aqi_unit": "USAQI",
        "pm25_unit": "μg/m³",
        "pm10_unit": "μg/m³",
        "co_unit": "μg/m³",
        "co2_unit": "ppm",
        "no2_unit": "μg/m³",
        "o3_unit": "μg/m³",
        "so2_unit": "μg/m³",
        "dust_unit": "μg/m³",
        "temp_unit": "°C",
        "hum_unit": "%"
      }
    },
    {
      "type": "Feature",
      "geometry": {
        "type": "Point",
        "coordinates": [
          75.293,
          34.305
        ]
      },
      "properties": {
        "station_id": "sonamarg",
        "name": "Sonamarg",
        "district": "Ganderbal",
        "online": true,
        "time": "2026-09-30T22:00:00Z",
        "aqi": 45,
        "pm25": 5,
        "pm10": 5.8,
        "co": 164,
        "co2": 452,
        "no2": 4.3,
        "o3": 42,
        "so2": 0.3,
        "dust": 2,
        "uv": 0,
        "temp": 5.8,
        "hum": 76,
        "aqi_unit": "USAQI",
        "pm25_unit": "μg/m³",
        "pm10_unit": "μg/m³",
        "co_unit": "μg/m³",
        "co2_unit": "ppm",
        "no2_unit": "μg/m³",
        "o3_unit": "μg/m³",
        "so2_unit": "μg/m³",
        "dust_unit": "μg/m³",
        "temp_unit": "°C",
        "hum_unit": "%"
      }
    },
    {
      "type": "Feature",
      "geometry": {
        "type": "Point",
        "coordinates": [
          74.66,
          33.83
        ]
      },
      "properties": {
        "station_id": "yusmarg",
        "name": "Yusmarg",
        "district": "Budgam",
        "online": true,
        "time": "2026-09-30T22:00:00Z",
        "aqi": 89,
        "pm25": 43,
        "pm10": 45.8,
        "co": 231,
        "co2": 463,
        "no2": 32.1,
        "o3": 22,
        "so2": 2.9,
        "dust": 5,
        "uv": 0,
        "temp": 7.7,
        "hum": 71,
        "aqi_unit": "USAQI",
        "pm25_unit": "μg/m³",
        "pm10_unit": "μg/m³",
        "co_unit": "μg/m³",
        "co2_unit": "ppm",
        "no2_unit": "μg/m³",
        "o3_unit": "μg/m³",
        "so2_unit": "μg/m³",
        "dust_unit": "μg/m³",
        "temp_unit": "°C",
        "hum_unit": "%"
      }
    },
    {
      "type": "Feature",
      "geometry": {
        "type": "Point",
        "coordinates": [
          74.429,
          34.045
        ]
      },
      "properties": {
        "station_id": "tangmarg",
        "name": "Tangmarg",
        "district": "Baramulla",
        "online": true,
        "time": "2026-09-30T22:00:00Z",
        "aqi": 64,
        "pm25": 16.7,
        "pm10": 19.7,
        "co": 189,
        "co2": 452,
        "no2": 10.3,
        "o3": 75,
        "so2": 2.8,
        "dust": 6,
        "uv": 0,
        "temp": 10.4,
        "hum": 65,
        "aqi_unit": "USAQI",
        "pm25_unit": "μg/m³",
        "pm10_unit": "μg/m³",
        "co_unit": "μg/m³",
        "co2_unit": "ppm",
        "no2_unit": "μg/m³",
        "o3_unit": "μg/m³",
        "so2_unit": "μg/m³",
        "dust_unit": "μg/m³",
        "temp_unit": "°C",
        "hum_unit": "%"
      }
    },
    {
      "type": "Feature",
      "geometry": {
        "type": "Point",
        "coordinates": [
          74.05,
          34.079
        ]
      },
      "properties": {
        "station_id": "uri",
        "name": "Uri",
        "district": "Baramulla",
        "online": true,
        "time": "2026-09-30T22:00:00Z",
        "aqi": 64,
        "pm25": 17.7,
        "pm10": 20.7,
        "co": 342,
        "co2": 555,
        "no2": 11.9,
        "o3": 60,
        "so2": 3.4,
        "dust": 6,
        "uv": 0,
        "temp": 13.2,
        "hum": 79,
        "aqi_unit": "USAQI",
        "pm25_unit": "μg/m³",
        "pm10_unit": "μg/m³",
        "co_unit": "μg/m³",
        "co2_unit": "ppm",
        "no2_unit": "μg/m³",
        "o3_unit": "μg/m³",
        "so2_unit": "μg/m³",
        "dust_unit": "μg/m³",
        "temp_unit": "°C",
        "hum_unit": "%"
      }
    },
    {
      "type": "Feature",
      "geometry": {
        "type": "Point",
        "coordinates": [
          75.01,
          33.92
        ]
      },
      "properties": {
        "station_id": "awantipora",
        "name": "Awantipora",
        "district": "Pulwama",
        "online": true,
        "time": "2026-09-30T22:00:00Z",
        "aqi": 63,
        "pm25": 21.7,
        "pm10": 23.2,
        "co": 561,
        "co2": 504,
        "no2": 16.8,
        "o3": 12,
        "so2": 1.3,
        "dust": 2,
        "uv": 0,
        "temp": 15.1,
        "hum": 70,
        "aqi_unit": "USAQI",
        "pm25_unit": "μg/m³",
        "pm10_unit": "μg/m³",
        "co_unit": "μg/m³",
        "co2_unit": "ppm",
        "no2_unit": "μg/m³",
        "o3_unit": "μg/m³",
        "so2_unit": "μg/m³",
        "dust_unit": "μg/m³",
        "temp_unit": "°C",
        "hum_unit": "%"
      }
    },
    {
      "type": "Feature",
      "geometry": {
        "type": "Point",
        "coordinates": [
          75.105,
          33.793
        ]
      },
      "properties": {
        "station_id": "bijbehara",
        "name": "Bijbehara",
        "district": "Anantnag",
        "online": true,
        "time": "2026-09-30T22:00:00Z",
        "aqi": 80,
        "pm25": 39.6,
        "pm10": 41.7,
        "co": 271,
        "co2": 497,
        "no2": 37.3,
        "o3": 0,
        "so2": 2.7,
        "dust": 3,
        "uv": 0,
        "temp": 12.9,
        "hum": 62,
        "aqi_unit": "USAQI",
        "pm25_unit": "μg/m³",
        "pm10_unit": "μg/m³",
        "co_unit": "μg/m³",
        "co2_unit": "ppm",
        "no2_unit": "μg/m³",
        "o3_unit": "μg/m³",
        "so2_unit": "μg/m³",
        "dust_unit": "μg/m³",
        "temp_unit": "°C",
        "hum_unit": "%"
      }
    },
    {
      "type": "Feature",
      "geometry": {
        "type": "Point",
        "coordinates": [
          75.15,
          33.64
        ]
      },
      "properties": {
        "station_id": "qazigund",
        "name": "Qazigund",
        "district": "Anantnag",
        "online": true,
        "time": "2026-09-30T22:00:00Z",
        "aqi": 80,
        "pm25": 39.6,
        "pm10": 41.7,
        "co": 262,
        "co2": 494,
        "no2": 37.3,
        "o3": 0,
        "so2": 2.7,
        "dust": 3,
        "uv": 0,
        "temp": 13.6,
        "hum": 74,
        "aqi_unit": "USAQI",
        "pm25_unit": "μg/m³",
        "pm10_unit": "μg/m³",
        "co_unit": "μg/m³",
        "co2_unit": "ppm",
        "no2_unit": "μg/m³",
        "o3_unit": "μg/m³",
        "so2_unit": "μg/m³",
        "dust_unit": "μg/m³",
        "temp_unit": "°C",
        "hum_unit": "%"
      }
    },
    {
      "type": "Feature",
      "geometry": {
        "type": "Point",
        "coordinates": [
          75.254,
          33.55
        ]
      },
      "properties": {
        "station_id": "verinag",
        "name": "Verinag",
        "district": "Anantnag",
        "online": true,
        "time": "2026-09-30T22:00:00Z",
        "aqi": 80,
        "pm25": 39.6,
        "pm10": 41.7,
        "co": 183,
        "co2": 479,
        "no2": 37.3,
        "o3": 0,
        "so2": 2.7,
        "dust": 3,
        "uv": 0,
        "temp": 11.4,
        "hum": 63,
        "aqi_unit": "USAQI",
        "pm25_unit": "μg/m³",
        "pm10_unit": "μg/m³",
        "co_unit": "μg/m³",
        "co2_unit": "ppm",
        "no2_unit": "μg/m³",
        "o3_unit": "μg/m³",
        "so2_unit": "μg/m³",
        "dust_unit": "μg/m³",
        "temp_unit": "°C",
        "hum_unit": "%"
      }
    },
    {
      "type": "Feature",
      "geometry": {
        "type": "Point",
        "coordinates": [
          75.32,
          33.59
        ]
      },
      "properties": {
        "station_id": "kokernag",
        "name": "Kokernag",
        "district": "Anantnag",
        "online": true,
        "time": "2026-09-30T22:00:00Z",
        "aqi": 80,
        "pm25": 39.6,
        "pm10": 41.7,
        "co": 183,
        "co2": 479,
        "no2": 37.3,
        "o3": 0,
        "so2": 2.7,
        "dust": 3,
        "uv": 0,
        "temp": 10.9,
        "hum": 63,
        "aqi_unit": "USAQI",
        "pm25_unit": "μg/m³",
        "pm10_unit": "μg/m³",
        "co_unit": "μg/m³",
        "co2_unit": "ppm",
        "no2_unit": "μg/m³",
        "o3_unit": "μg/m³",
        "so2_unit": "μg/m³",
        "dust_unit": "μg/m³",
        "temp_unit": "°C",
        "hum_unit": "%"
      }
    },
    {
      "type": "Feature",
      "geometry": {
        "type": "Point",
        "coordinates": [
          75.11,
          33.935
        ]
      },
      "properties": {
        "station_id": "tral",
        "name": "Tral",
        "district": "Pulwama",
        "online": true,
        "time": "2026-09-30T22:00:00Z",
        "aqi": 63,
        "pm25": 21.7,
        "pm10": 23.2,
        "co": 264,
        "co2": 489,
        "no2": 16.8,
        "o3": 12,
        "so2": 1.3,
        "dust": 2,
        "uv": 0,
        "temp": 13.5,
        "hum": 56,
        "aqi_unit": "USAQI",
        "pm25_unit": "μg/m³",
        "pm10_unit": "μg/m³",
        "co_unit": "μg/m³",
        "co2_unit": "ppm",
        "no2_unit": "μg/m³",
        "o3_unit": "μg/m³",
        "so2_unit": "μg/m³",
        "dust_unit": "μg/m³",
        "temp_unit": "°C",
        "hum_unit": "%"
      }
    },
    {
      "type": "Feature",
      "geometry": {
        "type": "Point",
        "coordinates": [
          74.71,
          33.995
        ]
      },
      "properties": {
        "station_id": "beerwah",
        "name": "Beerwah",
        "district": "Budgam",
        "online": true,
        "time": "2026-09-30T22:00:00Z",
        "aqi": 89,
        "pm25": 43,
        "pm10": 45.8,
        "co": 231,
        "co2": 464,
        "no2": 32.1,
        "o3": 22,
        "so2": 2.9,
        "dust": 5,
        "uv": 0,
        "temp": 12.4,
        "hum": 60,
        "aqi_unit": "USAQI",
        "pm25_unit": "μg/m³",
        "pm10_unit": "μg/m³",
        "co_unit": "μg/m³",
        "co2_unit": "ppm",
        "no2_unit": "μg/m³",
        "o3_unit": "μg/m³",
        "so2_unit": "μg/m³",
        "dust_unit": "μg/m³",
        "temp_unit": "°C",
        "hum_unit": "%"
      }
    },
    {
      "type": "Feature",
      "geometry": {
        "type": "Point",
        "coordinates": [
          75.197,
          33.438
        ]
      },
      "properties": {
        "station_id": "banihal",
        "name": "Banihal",
        "district": "Ramban",
        "online": true,
        "time": "2026-09-30T22:00:00Z",
        "aqi": 80,
        "pm25": 39.6,
        "pm10": 41.7,
        "co": 244,
        "co2": 501,
        "no2": 37.3,
        "o3": 0,
        "so2": 2.7,
        "dust": 3,
        "uv": 0,
        "temp": 13.9,
        "hum": 73,
        "aqi_unit": "USAQI",
        "pm25_unit": "μg/m³",
        "pm10_unit": "μg/m³",
        "co_unit": "μg/m³",
        "co2_unit": "ppm",
        "no2_unit": "μg/m³",
        "o3_unit": "μg/m³",
        "so2_unit": "μg/m³",
        "dust_unit": "μg/m³",
        "temp_unit": "°C",
        "hum_unit": "%"
      }
    },
    {
      "type": "Feature",
      "geometry": {
        "type": "Point",
        "coordinates": [
          74.83,
          34.63
        ]
      },
      "properties": {
        "station_id": "gurez",
        "name": "Gurez (Dawar)",
        "district": "Bandipora",
        "online": true,
        "time": "2026-09-30T22:00:00Z",
        "aqi": 47,
        "pm25": 3.2,
        "pm10": 4.3,
        "co": 150,
        "co2": 459,
        "no2": 8.1,
        "o3": 59,
        "so2": 1.1,
        "dust": 2,
        "uv": 0,
        "temp": 6.4,
        "hum": 66,
        "aqi_unit": "USAQI",
        "pm25_unit": "μg/m³",
        "pm10_unit": "μg/m³",
        "co_unit": "μg/m³",
        "co2_unit": "ppm",
        "no2_unit": "μg/m³",
        "o3_unit": "μg/m³",
        "so2_unit": "μg/m³",
        "dust_unit": "μg/m³",
        "temp_unit": "°C",
        "hum_unit": "%"
      }
    },
    {
      "type": "Feature",
      "geometry": {
        "type": "Point",
        "coordinates": [
          74.08,
          34.69
        ]
      },
      "properties": {
        "station_id": "tangdhar",
        "name": "Tangdhar",
        "district": "Kupwara",
        "online": true,
        "time": "2026-09-30T22:00:00Z",
        "aqi": 32,
        "pm25": 7.4,
        "pm10": 7.7,
        "co": 188,
        "co2": 493,
        "no2": 10,
        "o3": 44,
        "so2": 0,
        "dust": 1,
        "uv": 0,
        "temp": 4.6,
        "hum": 59,
        "aqi_unit": "USAQI",
        "pm25_unit": "μg/m³",
        "pm10_unit": "μg/m³",
        "co_unit": "μg/m³",
        "co2_unit": "ppm",
        "no2_unit": "μg/m³",
        "o3_unit": "μg/m³",
        "so2_unit": "μg/m³",
        "dust_unit": "μg/m³",
        "temp_unit": "°C",
        "hum_unit": "%"
      }
    }
  ]
}